NORAD_CAT_ID,OBJECT_NAME,OBJECT_TYPE,EPOCH,MEAN_MOTION,ECCENTRICITY,INCLINATION,RA_OF_ASC_NODE,ARG_OF_PERICENTER,MEAN_ANOMALY,BSTAR,MEAN_MOTION_DOT,MEAN_MOTION_DDOT,TLE_LINE0,TLE_LINE1,TLE_LINE2,SEMIMAJOR_AXIS,PERIOD,APOGEE,PERIGEE,DECAYED
52270.0,STARLINK-3804,PAYLOAD,2022-06-23 22:00:00,15.14699364,0.0001809,53.2175,71.0036,45.8989,138.785,-0.04127,-0.00720151,0.0,0 STARLINK-3804,1 52270U 22041K   22174.91667824 -.00720151  00000-0 -41270-1 0  9997,2 52270  53.2175  71.0036 0001809  45.8989 138.7850 15.14699364  1303,6900.028,95.068,523.1419999999998,520.645,0.0
52270.0,STARLINK-3804,PAYLOAD,2022-06-24 06:00:02,15.14191616,0.0001506999999999,53.2172,69.4945,62.6289,140.4445,-0.042058,-0.00723152,0.0,0 STARLINK-3804,1 52270U 22041K   22175.25002315 -.00723152  00000-0 -42058-1 0  9992,2 52270  53.2172  69.4945 0001507  62.6289 140.4445 15.14191616 11101,6901.571,95.1,524.476,522.396,0.0
52270.0,STARLINK-3804,PAYLOAD,2022-06-24 14:00:01,15.13680878,0.0001685,53.2172,67.9848,50.0397,170.6868,-0.042647,-0.00722805,0.0,0 STARLINK-3804,1 52270U 22041K   22175.58334491 -.00722805  00000-0 -42647-1 0  9999,2 52270  53.2172  67.9848 0001685  50.0397 170.6868 15.13680878  1301,6903.123000000001,95.132,526.151,523.825,0.0
52270.0,STARLINK-3804,PAYLOAD,2022-06-24 22:00:01,15.13169096,0.000175,53.2175,66.4793,48.973,188.9181,-0.043045,-0.00719349,0.0,0 STARLINK-3804,1 52270U 22041K   22175.91668981 -.00719349  00000-0 -43045-1 0  9992,2 52270  53.2175  66.4793 0001750  48.9730 188.9181 15.13169096  1301,6904.68,95.165,527.753,525.336,0.0
52270.0,STARLINK-3804,PAYLOAD,2022-06-25 14:00:01,15.12150018,0.000153,53.2173,63.4674,57.0084,213.186,-0.044428,-0.00721335,0.0,0 STARLINK-3804,1 52270U 22041K   22176.58334491 -.00721335  00000-0 -44428-1 0  9996,2 52270  53.2173  63.4674 0001530  57.0084 213.1860 15.12150018 11302,6907.781,95.229,530.703,528.59,0.0
52270.0,STARLINK-3804,PAYLOAD,2022-06-25 22:00:00,15.11639548,0.0001744,53.2174,61.9657,46.2564,239.2004,-0.04496,-0.00719759,0.0,0 STARLINK-3804,1 52270U 22041K   22176.91667824 -.00719759  00000-0 -44960-1 0  9990,2 52270  53.2174  61.9657 0001744  46.2564 239.2004 15.11639548  1304,6909.3359999999975,95.261,532.406,529.997,0.0
52270.0,STARLINK-3804,PAYLOAD,2022-06-26 14:00:01,15.10619044,0.0001486,53.2173,58.9608,55.9829,258.2272,-0.046249,-0.00719619,0.0,0 STARLINK-3804,1 52270U 22041K   22177.58335648 -.00719619  00000-0 -46249-1 0  9997,2 52270  53.2173  58.9608 0001486  55.9829 258.2272 15.10619044 11452,6912.448,95.325,535.34,533.286,0.0
52270.0,STARLINK-3804,PAYLOAD,2022-06-26 22:00:00,15.10110563,0.0001593,53.2174,57.4628,49.9071,277.6633,-0.047028,-0.00721371,0.0,0 STARLINK-3804,1 52270U 22041K   22177.91667824 -.00721371  00000-0 -47028-1 0  9992,2 52270  53.2174  57.4628 0001593  49.9071 277.6633 15.10110563  1301,6914.0,95.357,536.966,534.763,0.0
52270.0,STARLINK-3804,PAYLOAD,2022-06-27 14:00:01,15.09153473,0.0001418,53.2173,54.465,67.1648,285.4034,-0.026657,-0.00404772,0.0,0 STARLINK-3804,1 52270U 22041K   22178.58334491 -.00404772  00000-0 -26657-1 0  9995,2 52270  53.2173  54.4650 0001418  67.1648 285.4034 15.09153473 11601,6916.922,95.418,539.768,537.807,0.0
52270.0,STARLINK-3804,PAYLOAD,2022-06-27 22:00:00,15.088375199999998,0.0001795,53.2173,52.97,45.8995,318.4612,-8.2264e-05,-1.597e-05,0.0,0 STARLINK-3804,1 52270U 22041K   22178.91667824 -.00001597  00000-0 -82264-4 0  9998,2 52270  53.2173  52.9700 0001795  45.8995 318.4612 15.08837520 11651,6917.888000000001,95.438,540.995,538.511,0.0
52270.0,STARLINK-3804,PAYLOAD,2022-06-28 06:00:00,15.08857288,0.0001761,53.2143,51.4674,51.0018,324.8531,-0.0014044,-0.0002258,0.0,0 STARLINK-3804,1 52270U 22041K   22179.25001157 -.00022580  00000-0 -14044-2 0  9991,2 52270  53.2143  51.4674 0001761  51.0018 324.8531 15.08857288 11700,6917.828,95.436,540.911,538.474,0.0
52270.0,STARLINK-3804,PAYLOAD,2022-06-28 14:00:01,15.088350899999998,0.0001655,53.2152,49.9695,58.1051,329.3585,0.0020846,0.0003304,0.0,0 STARLINK-3804,1 52270U 22041K   22179.58334491  .00033040  00000-0  20846-2 0  9995,2 52270  53.2152  49.9695 0001655  58.1051 329.3585 15.08835090  1303,6917.895,95.438,540.905,538.615,0.0
52270.0,STARLINK-3804,PAYLOAD,2022-06-28 22:00:00,15.08845537,0.0001783,53.2158,48.4749,52.2633,346.8061,-0.0024057,-0.00038377,0.0,0 STARLINK-3804,1 52270U 22041K   22179.91667824 -.00038377  00000-0 -24057-2 0  9999,2 52270  53.2158  48.4749 0001783  52.2633 346.8061 15.08845537  1306,6917.863,95.437,540.962,538.495,0.0
52270.0,STARLINK-3804,PAYLOAD,2022-06-29 14:00:01,15.08817568,0.0001636,53.2161,45.4802,57.8794,4.3584,0.0022527,0.00035724,0.0,0 STARLINK-3804,1 52270U 22041K   22180.58334491  .00035724  00000-0  22527-2 0  9996,2 52270  53.2161  45.4802 0001636  57.8794   4.3584 15.08817568  1302,6917.949000000001,95.439,540.946,538.682,0.0
52270.0,STARLINK-3804,PAYLOAD,2022-06-29 22:00:00,15.08840657,0.0001798,53.216,43.9856,52.6766,21.1494,-0.00052505,-8.635e-05,0.0,0 STARLINK-3804,1 52270U 22041K   22180.91667824 -.00008635  00000-0 -52505-3 0  9995,2 52270  53.2160  43.9856 0001798  52.6766  21.1494 15.08840657 11969,6917.878000000002,95.438,540.987,538.5,0.0
52270.0,STARLINK-3804,PAYLOAD,2022-06-30 14:00:01,15.08837416,0.0001656,53.2162,40.9909,59.9727,37.046,0.0018956,0.00030007,0.0,0 STARLINK-3804,1 52270U 22041K   22181.58334491  .00030007  00000-0  18956-2 0  9997,2 52270  53.2162  40.9909 0001656  59.9727  37.0460 15.08837416  1302,6917.888000000001,95.438,540.899,538.6080000000002,0.0
52270.0,STARLINK-3804,PAYLOAD,2022-06-30 22:00:00,15.0885141,0.0001802,53.2163,39.4967,54.0432,54.5818,-0.00027194,-4.615e-05,0.0,0 STARLINK-3804,1 52270U 22041K   22181.91667824 -.00004615  00000-0 -27194-3 0  9996,2 52270  53.2163  39.4967 0001802  54.0432  54.5818 15.08851410 12114,6917.846,95.437,540.957,538.464,0.0
52270.0,STARLINK-3804,PAYLOAD,2022-07-01 14:00:01,15.08858552,0.0001629,53.2161,36.5015,61.9174,69.9246,0.00032198,4.843e-05,0.0,0 STARLINK-3804,1 52270U 22041K   22182.58334491  .00004843  00000-0  32198-3 0  9992,2 52270  53.2161  36.5015 0001629  61.9174  69.9246 15.08858552  1309,6917.824000000001,95.436,540.816,538.562,0.0
52270.0,STARLINK-3804,PAYLOAD,2022-07-01 22:00:00,15.08843001,0.0001702,53.2159,35.0069,54.2676,89.2001,-0.0011031,-0.00017803,0.0,0 STARLINK-3804,1 52270U 22041K   22182.91667824 -.00017803  00000-0 -11031-2 0  9992,2 52270  53.2159  35.0069 0001702  54.2676  89.2001 15.08843001  1300,6917.871,95.437,540.914,538.559,0.0
52270.0,STARLINK-3804,PAYLOAD,2022-07-02 06:00:00,15.0885149,0.0001601,53.2155,33.5094,55.5564,99.4982,-0.0019978,-0.00031952,0.0,0 STARLINK-3804,1 52270U 22041K   22183.25001157 -.00031952  00000-0 -19978-2 0  9990,2 52270  53.2155  33.5094 0001601  55.5564  99.4982 15.08851490 12310,6917.845,95.437,540.818,538.6030000000002,0.0
52270.0,STARLINK-3804,PAYLOAD,2022-07-02 14:00:01,15.08839133,0.0001548,53.2158,32.0122,62.9751,103.6731,0.00090979,0.00014221,0.0,0 STARLINK-3804,1 52270U 22041K   22183.58334491  .00014221  00000-0  90979-3 0  9995,2 52270  53.2158  32.0122 0001548  62.9751 103.6731 15.08839133  1306,6917.8830000000025,95.438,540.819,538.677,0.0
52270.0,STARLINK-3804,PAYLOAD,2022-07-02 22:00:00,15.0884332,0.0001676999999999,53.2155,30.5176,55.0015,123.2603,0.0010405,0.00016312,0.0,0 STARLINK-3804,1 52270U 22041K   22183.91667824  .00016312  00000-0  10405-2 0  9999,2 52270  53.2155  30.5176 0001677  55.0015 123.2603 15.08843320  1303,6917.87,95.437,540.895,538.575,0.0
52270.0,STARLINK-3804,PAYLOAD,2022-07-03 14:00:01,15.08877288,0.0001616,53.2155,27.5229,64.8715,136.6099,-0.0025769,-0.00041108,0.0,0 STARLINK-3804,1 52270U 22041K   22184.58334491 -.00041108  00000-0 -25769-2 0  9996,2 52270  53.2155  27.5229 0001616  64.8715 136.6099 15.08877288  1303,6917.766,95.435,540.749,538.514,0.0
52270.0,STARLINK-3804,PAYLOAD,2022-07-03 22:00:00,15.08820381,0.0001747,53.2153,26.0282,56.8151,156.2903,-0.0007188,-0.00011704,0.0,0 STARLINK-3804,1 52270U 22041K   22184.91667824 -.00011704  00000-0 -71880-3 0  9997,2 52270  53.2153  26.0282 0001747  56.8151 156.2903 15.08820381  1308,6917.94,95.439,541.014,538.597,0.0
52270.0,STARLINK-3804,PAYLOAD,2022-07-04 14:00:01,15.08821713,0.0001631999999999,53.2154,23.0336,64.4102,171.8206,0.00029229,4.365e-05,0.0,0 STARLINK-3804,1 52270U 22041K   22185.58334491  .00004365  00000-0  29229-3 0  9995,2 52270  53.2154  23.0336 0001632  64.4102 171.8206 15.08821713  1309,6917.936,95.439,540.93,538.672,0.0
52270.0,STARLINK-3804,PAYLOAD,2022-07-04 22:00:00,15.08810905,0.0001779,53.2155,21.5389,56.0301,191.7868,0.0020229,0.00032028,0.0,0 STARLINK-3804,1 52270U 22041K   22185.91667824  .00032028  00000-0  20229-2 0  9998,2 52270  53.2155  21.5389 0001779  56.0301 191.7868 15.08810905 12714,6917.969,95.439,541.065,538.604,0.0
52270.0,STARLINK-3804,PAYLOAD,2022-07-05 14:00:01,15.08846025,0.0001686,53.2158,18.5444,63.6163,207.3578,0.00021437,3.126e-05,0.0,0 STARLINK-3804,1 52270U 22041K   22186.58334491  .00003126  00000-0  21437-3 0  9993,2 52270  53.2158  18.5444 0001686  63.6163 207.3578 15.08846025  1309,6917.861999999999,95.437,540.893,538.561,0.0
52270.0,STARLINK-3804,PAYLOAD,2022-07-05 22:00:00,15.08826424,0.0001832,53.2159,17.0497,55.9842,226.5956,0.0022371,0.00035482,0.0,0 STARLINK-3804,1 52270U 22041K   22186.91667824  .00035482  00000-0  22371-2 0  9996,2 52270  53.2159  17.0497 0001832  55.9842 226.5956 15.08826424 12860,6917.922,95.438,541.054,538.52,0.0
52270.0,STARLINK-3804,PAYLOAD,2022-07-06 14:00:01,15.08835297,0.0001633,53.2164,14.0552,61.7115,244.0482,-0.00029057,-4.909e-05,0.0,0 STARLINK-3804,1 52270U 22041K   22187.58334491 -.00004909  00000-0 -29057-3 0  9992,2 52270  53.2164  14.0552 0001633  61.7115 244.0482 15.08835297 12960,6917.895,95.438,540.889,538.63,0.0
